{
  "type": "FeatureCollection",
  "features": [
    {
      "type": "Feature",
      "id": "AFR",
      "properties": {
        "name": "Africa",
        "continent": "Africa",
        "population": null,
        "gdp": null
      },
      "geometry": {
        "type": "Polygon",
        "coordinates": [
          [
            [-17.542, 27.656],
            [-10.589, 29.411],
            [-10.307, 34.561],
            [6.611, 36.139],
            [7.109, 35.738],
            [9.587, 37.078],
            [32.832, 39.855],
            [34.263, 31.131],
            [35.817, 31.055],
            [39.20, 32.755],
            [37.761, 30.217],
            [43.676, 24.215],
            [44.975, 16.826],
            [48.028, 10.291],
            [50.784, 9.614],
            [51.143, 8.001],
            [55.002, 4.169],
            [55.837, -0.587],
            [59.2, -3.97],
            [60.512, -7.1],
            [64.296, -9.229],
            [63.982, -11.26],
            [65.745, -11.094],
            [66.805, -17.045],
            [61.210, -22.804],
            [57.754, -24.614],
            [52.727, -23.701],
            [48.242, -24.215],
            [43.08, -21.502],
            [41.755, -23.835],
            [40.317, -23.945],
            [39.285, -27.507],
            [34.519, -27.744],
            [32.357, -26.465],
            [28.287, -26.523],
            [27.695, -25.643],
            [25.885, -25.835],
            [20.643, -26.297],
            [19.984, -22.856],
            [18.567, -17.578],
            [14.072, -17.066],
            [9.588, -16.501],
            [9.714, -13.147],
            [3.852, -11.267],
            [2.803, -8.675],
            [2.421, -5.897],
            [1.054, -5.50],
            [0.644, -4.616],
            [-0.823, -4.478],
            [-2.800, -3.971],
            [-4.26, -5.235],
            [-5.519, -4.717],
            [-5.897, -3.021],
            [-7.1, -2.789],
            [-8.676, -1.056],
            [-9.452, 3.369],
            [-10.589, 4.248],
            [-11.504, 4.719],
            [-12.505, 3.369],
            [-12.168, 1.707],
            [-13.111, 1.501],
            [-14.241, -0.449],
            [-15.47, -1.695],
            [-15.897, -3.762],
            [-17.542, 27.656]
          ]
        ]
      }
    }
  ]
}
